[{"OBJECT_NAME":"ONEWEB-0217","OBJECT_ID":"2021-031AM","EPOCH":"2025-12-30T03:47:18.680640","MEAN_MOTION":13.14501997,"ECCENTRICITY":0.00014799,"INCLINATION":87.9017,"RA_OF_ASC_NODE":323.3684,"ARG_OF_PERICENTER":77.1406,"MEAN_ANOMALY":282.9889,"EPHEMERIS_TYPE":0,"CLASSIFICATION_TYPE":"U","NORAD_CAT_ID":48245,"ELEMENT_SET_NO":999,"REV_AT_EPOCH":22597,"BSTAR":-0.00061621334,"MEAN_MOTION_DOT":-2.16e-6,"MEAN_MOTION_DDOT":0},{"OBJECT_NAME":"ONEWEB-0211","OBJECT_ID":"2021-045A","EPOCH":"2025-12-30T06:30:37.322784","MEAN_MOTION":13.16138135,"ECCENTRICITY":0.00014854,"INCLINATION":87.9016,"RA_OF_ASC_NODE":292.8248,"ARG_OF_PERICENTER":61.1991,"MEAN_ANOMALY":298.9288,"EPHEMERIS_TYPE":0,"CLASSIFICATION_TYPE":"U","NORAD_CAT_ID":48767,"ELEMENT_SET_NO":999,"REV_AT_EPOCH":22222,"BSTAR":0.00018199498,"MEAN_MOTION_DOT":8.2e-7,"MEAN_MOTION_DDOT":0},{"OBJECT_NAME":"ONEWEB-0223","OBJECT_ID":"2021-045B","EPOCH":"2025-12-30T06:28:43.635072","MEAN_MOTION":13.1555428,"ECCENTRICITY":0.00017773,"INCLINATION":87.9011,"RA_OF_ASC_NODE":292.8925,"ARG_OF_PERICENTER":59.762,"MEAN_ANOMALY":300.3686,"EPHEMERIS_TYPE":0,"CLASSIFICATION_TYPE":"U","NORAD_CAT_ID":48768,"ELEMENT_SET_NO":999,"REV_AT_EPOCH":22219,"BSTAR":0.00047258121,"MEAN_MOTION_DOT":1.91e-6,"MEAN_MOTION_DDOT":0},{"OBJECT_NAME":"ONEWEB-0230","OBJECT_ID":"2021-045C","EPOCH":"2025-12-30T05:47:38.373504","MEAN_MOTION":13.15547296,"ECCENTRICITY":0.00018322,"INCLINATION":87.9004,"RA_OF_ASC_NODE":292.9265,"ARG_OF_PERICENTER":76.4708,"MEAN_ANOMALY":283.6626,"EPHEMERIS_TYPE":0,"CLASSIFICATION_TYPE":"U","NORAD_CAT_ID":48769,"ELEMENT_SET_NO":999,"REV_AT_EPOCH":22245,"BSTAR":0.0003248149,"MEAN_MOTION_DOT":1.35e-6,"MEAN_MOTION_DDOT":0},{"OBJECT_NAME":"ONEWEB-0237","OBJECT_ID":"2021-045D","EPOCH":"2025-12-30T05:31:40.228608","MEAN_MOTION":13.15547641,"ECCENTRICITY":0.00018412,"INCLINATION":87.9008,"RA_OF_ASC_NODE":292.9292,"ARG_OF_PERICENTER":65.6851,"MEAN_ANOMALY":294.4472,"EPHEMERIS_TYPE":0,"CLASSIFICATION_TYPE":"U","NORAD_CAT_ID":48770,"ELEMENT_SET_NO":999,"REV_AT_EPOCH":22217,"BSTAR":-0.00030047203,"MEAN_MOTION_DOT":-1.0e-6,"MEAN_MOTION_DDOT":0},{"OBJECT_NAME":"ONEWEB-0235","OBJECT_ID":"2021-045E","EPOCH":"2025-12-30T06:44:41.079264","MEAN_MOTION":13.15547112,"ECCENTRICITY":0.00018057,"INCLINATION":87.9014,"RA_OF_ASC_NODE":292.891,"ARG_OF_PERICENTER":59.5632,"MEAN_ANOMALY":300.5677,"EPHEMERIS_TYPE":0,"CLASSIFICATION_TYPE":"U","NORAD_CAT_ID":48771,"ELEMENT_SET_NO":999,"REV_AT_EPOCH":22217,"BSTAR":4.9414271e-5,"MEAN_MOTION_DOT":3.1e-7,"MEAN_MOTION_DDOT":0},{"OBJECT_NAME":"ONEWEB-0242","OBJECT_ID":"2021-045F","EPOCH":"2025-12-30T06:35:33.661824","MEAN_MOTION":13.15547587,"ECCENTRICITY":0.00018841,"INCLINATION":87.9014,"RA_OF_ASC_NODE":292.8871,"ARG_OF_PERICENTER":68.1178,"MEAN_ANOMALY":292.0153,"EPHEMERIS_TYPE":0,"CLASSIFICATION_TYPE":"U","NORAD_CAT_ID":48772,"ELEMENT_SET_NO":999,"REV_AT_EPOCH":22221,"BSTAR":0.00017544777,"MEAN_MOTION_DOT":7.9e-7,"MEAN_MOTION_DDOT":0},{"OBJECT_NAME":"ONEWEB-0241","OBJECT_ID":"2021-045G","EPOCH":"2025-12-30T06:17:18.868416","MEAN_MOTION":13.15547748,"ECCENTRICITY":0.00014938,"INCLINATION":87.9005,"RA_OF_ASC_NODE":292.925,"ARG_OF_PERICENTER":60.6348,"MEAN_ANOMALY":299.4931,"EPHEMERIS_TYPE":0,"CLASSIFICATION_TYPE":"U","NORAD_CAT_ID":48773,"ELEMENT_SET_NO":999,"REV_AT_EPOCH":22212,"BSTAR":0.00050323785,"MEAN_MOTION_DOT":2.02e-6,"MEAN_MOTION_DDOT":0},{"OBJECT_NAME":"ONEWEB-0243","OBJECT_ID":"2021-045H","EPOCH":"2025-12-30T05:13:25.550112","MEAN_MOTION":13.15549306,"ECCENTRICITY":0.00019471,"INCLINATION":87.9009,"RA_OF_ASC_NODE":292.9438,"ARG_OF_PERICENTER":65.005,"MEAN_ANOMALY":295.1282,"EPHEMERIS_TYPE":0,"CLASSIFICATION_TYPE":"U","NORAD_CAT_ID":48774,"ELEMENT_SET_NO":999,"REV_AT_EPOCH":22214,"BSTAR":-0.00033191286,"MEAN_MOTION_DOT":-1.12e-6,"MEAN_MOTION_DDOT":0},{"OBJECT_NAME":"ONEWEB-0222","OBJECT_ID":"2021-045J","EPOCH":"2025-12-30T06:38:58.902432","MEAN_MOTION":13.15549272,"ECCENTRICITY":0.00016979,"INCLINATION":87.9017,"RA_OF_ASC_NODE":292.8862,"ARG_OF_PERICENTER":69.0227,"MEAN_ANOMALY":291.1084,"EPHEMERIS_TYPE":0,"CLASSIFICATION_TYPE":"U","NORAD_CAT_ID":48775,"ELEMENT_SET_NO":999,"REV_AT_EPOCH":22219,"BSTAR":4.0833365e-5,"MEAN_MOTION_DOT":2.8e-7,"MEAN_MOTION_DDOT":0},{"OBJECT_NAME":"ONEWEB-0244","OBJECT_ID":"2021-045K","EPOCH":"2025-12-30T05:27:06.053760","MEAN_MOTION":13.15547155,"ECCENTRICITY":0.00018243,"INCLINATION":87.9019,"RA_OF_ASC_NODE":292.8848,"ARG_OF_PERICENTER":70.2615,"MEAN_ANOMALY":289.8712,"EPHEMERIS_TYPE":0,"CLASSIFICATION_TYPE":"U","NORAD_CAT_ID":48776,"ELEMENT_SET_NO":999,"REV_AT_EPOCH":22275,"BSTAR":-0.00016959796,"MEAN_MOTION_DOT":-5.1e-7,"MEAN_MOTION_DDOT":0},{"OBJECT_NAME":"ONEWEB-0247","OBJECT_ID":"2021-045L","EPOCH":"2025-12-30T05:22:33.076416","MEAN_MOTION":13.15552555,"ECCENTRICITY":0.00022621,"INCLINATION":87.9003,"RA_OF_ASC_NODE":292.9391,"ARG_OF_PERICENTER":53.4464,"MEAN_ANOMALY":306.6875,"EPHEMERIS_TYPE":0,"CLASSIFICATION_TYPE":"U","NORAD_CAT_ID":48777,"ELEMENT_SET_NO":999,"REV_AT_EPOCH":22219,"BSTAR":-0.00024943191,"MEAN_MOTION_DOT":-8.1e-7,"MEAN_MOTION_DDOT":0},{"OBJECT_NAME":"ONEWEB-0245","OBJECT_ID":"2021-045M","EPOCH":"2025-12-30T05:15:42.261696","MEAN_MOTION":13.1554743,"ECCENTRICITY":0.00015819,"INCLINATION":87.9012,"RA_OF_ASC_NODE":292.9055,"ARG_OF_PERICENTER":70.4396,"MEAN_ANOMALY":289.6905,"EPHEMERIS_TYPE":0,"CLASSIFICATION_TYPE":"U","NORAD_CAT_ID":48778,"ELEMENT_SET_NO":999,"REV_AT_EPOCH":22216,"BSTAR":-0.00035775413,"MEAN_MOTION_DOT":-1.22e-6,"MEAN_MOTION_DDOT":0},{"OBJECT_NAME":"ONEWEB-0229","OBJECT_ID":"2021-045N","EPOCH":"2025-12-30T05:08:51.482400","MEAN_MOTION":13.15547546,"ECCENTRICITY":0.00018712,"INCLINATION":87.9007,"RA_OF_ASC_NODE":292.9038,"ARG_OF_PERICENTER":71.8749,"MEAN_ANOMALY":288.2585,"EPHEMERIS_TYPE":0,"CLASSIFICATION_TYPE":"U","NORAD_CAT_ID":48779,"ELEMENT_SET_NO":999,"REV_AT_EPOCH":22219,"BSTAR":-0.00031237785,"MEAN_MOTION_DOT":-1.05e-6,"MEAN_MOTION_DDOT":0},{"OBJECT_NAME":"ONEWEB-0228","OBJECT_ID":"2021-045P","EPOCH":"2025-12-30T05:56:58.643808","MEAN_MOTION":13.15548703,"ECCENTRICITY":0.00017423,"INCLINATION":87.9013,"RA_OF_ASC_NODE":292.8831,"ARG_OF_PERICENTER":70.9532,"MEAN_ANOMALY":289.1787,"EPHEMERIS_TYPE":0,"CLASSIFICATION_TYPE":"U","NORAD_CAT_ID":48780,"ELEMENT_SET_NO":999,"REV_AT_EPOCH":22211,"BSTAR":0.0002913433,"MEAN_MOTION_DOT":1.22e-6,"MEAN_MOTION_DDOT":0},{"OBJECT_NAME":"ONEWEB-0232","OBJECT_ID":"2021-045Q","EPOCH":"2025-12-30T05:20:16.165248","MEAN_MOTION":13.15549731,"ECCENTRICITY":0.00017673,"INCLINATION":87.9025,"RA_OF_ASC_NODE":292.8819,"ARG_OF_PERICENTER":74.0576,"MEAN_ANOMALY":286.0749,"EPHEMERIS_TYPE":0,"CLASSIFICATION_TYPE":"U","NORAD_CAT_ID":48781,"ELEMENT_SET_NO":999,"REV_AT_EPOCH":22243,"BSTAR":-0.00030316645,"MEAN_MOTION_DOT":-1.01e-6,"MEAN_MOTION_DDOT":0}]
