ONEWEB-0217             
1 48245U 21031AM  25364.15785510 -.00000216  00000+0 -61621-3 0  9991
2 48245  87.9017 323.3684 0001479  77.1406 282.9889 13.14501997225973
ONEWEB-0211             
1 48767U 21045A   25364.27126531  .00000082  00000+0  18199-3 0  9991
2 48767  87.9016 292.8248 0001485  61.1991 298.9288 13.16138135222223
ONEWEB-0223             
1 48768U 21045B   25364.26994948  .00000191  00000+0  47258-3 0  9995
2 48768  87.9011 292.8925 0001777  59.7620 300.3686 13.15554280222195
ONEWEB-0230             
1 48769U 21045C   25364.24141636  .00000135  00000+0  32481-3 0  9992
2 48769  87.9004 292.9265 0001832  76.4708 283.6626 13.15547296222456
ONEWEB-0237             
1 48770U 21045D   25364.23032672 -.00000100  00000+0 -30047-3 0  9992
2 48770  87.9008 292.9292 0001841  65.6851 294.4472 13.15547641222173
ONEWEB-0235             
1 48771U 21045E   25364.28103101  .00000031  00000+0  49414-4 0  9994
2 48771  87.9014 292.8910 0001805  59.5632 300.5677 13.15547112222175
ONEWEB-0242             
1 48772U 21045F   25364.27469516  .00000079  00000+0  17545-3 0  9990
2 48772  87.9014 292.8871 0001884  68.1178 292.0153 13.15547587222215
ONEWEB-0241             
1 48773U 21045G   25364.26202394  .00000202  00000+0  50324-3 0  9999
2 48773  87.9005 292.9250 0001493  60.6348 299.4931 13.15547748222124
ONEWEB-0243             
1 48774U 21045H   25364.21765683 -.00000112  00000+0 -33191-3 0  9995
2 48774  87.9009 292.9438 0001947  65.0050 295.1282 13.15549306222146
ONEWEB-0222             
1 48775U 21045J   25364.27707063  .00000028  00000+0  40833-4 0  9996
2 48775  87.9017 292.8862 0001697  69.0227 291.1084 13.15549272222191
ONEWEB-0244             
1 48776U 21045K   25364.22715340 -.00000051  00000+0 -16960-3 0  9990
2 48776  87.9019 292.8848 0001824  70.2615 289.8712 13.15547155222757
ONEWEB-0247             
1 48777U 21045L   25364.22399394 -.00000081  00000+0 -24943-3 0  9991
2 48777  87.9003 292.9391 0002262  53.4464 306.6875 13.15552555222193
ONEWEB-0245             
1 48778U 21045M   25364.21923914 -.00000122  00000+0 -35775-3 0  9993
2 48778  87.9012 292.9055 0001581  70.4396 289.6905 13.15547430222164
ONEWEB-0229             
1 48779U 21045N   25364.21448475 -.00000105  00000+0 -31238-3 0  9999
2 48779  87.9007 292.9038 0001871  71.8749 288.2585 13.15547546222199
ONEWEB-0228             
1 48780U 21045P   25364.24790097  .00000122  00000+0  29134-3 0  9993
2 48780  87.9013 292.8831 0001742  70.9532 289.1787 13.15548703222117
ONEWEB-0232             
1 48781U 21045Q   25364.22240932 -.00000101  00000+0 -30317-3 0  9994
2 48781  87.9025 292.8819 0001767  74.0576 286.0749 13.15549731222438
